[{"OBJECT_NAME":"TAURUS-1 (JINNIUZUO 1)","OBJECT_ID":"2019-059C","EPOCH":"2026-04-27T07:44:56.023296","MEAN_MOTION":14.71522096,"ECCENTRICITY":0.00099063,"INCLINATION":98.6373,"RA_OF_ASC_NODE":279.0294,"ARG_OF_PERICENTER":112.6567,"MEAN_ANOMALY":247.5686,"EPHEMERIS_TYPE":0,"CLASSIFICATION_TYPE":"U","NORAD_CAT_ID":44530,"ELEMENT_SET_NO":999,"REV_AT_EPOCH":35116,"BSTAR":0.0013774707,"MEAN_MOTION_DOT":8.511e-5,"MEAN_MOTION_DDOT":0},{"OBJECT_NAME":"ZHUHAI-1 03B","OBJECT_ID":"2019-060C","EPOCH":"2026-04-27T06:26:54.168864","MEAN_MOTION":15.51213637,"ECCENTRICITY":0.00101267,"INCLINATION":97.5464,"RA_OF_ASC_NODE":272.4205,"ARG_OF_PERICENTER":141.0516,"MEAN_ANOMALY":219.1467,"EPHEMERIS_TYPE":0,"CLASSIFICATION_TYPE":"U","NORAD_CAT_ID":44536,"ELEMENT_SET_NO":999,"REV_AT_EPOCH":36842,"BSTAR":0.00062604817,"MEAN_MOTION_DOT":0.00036713,"MEAN_MOTION_DDOT":0},{"OBJECT_NAME":"ZHUHAI-1 03C","OBJECT_ID":"2019-060D","EPOCH":"2026-04-27T05:44:16.936224","MEAN_MOTION":15.85812314,"ECCENTRICITY":0.00033507,"INCLINATION":97.5497,"RA_OF_ASC_NODE":283.9687,"ARG_OF_PERICENTER":95.3277,"MEAN_ANOMALY":264.8375,"EPHEMERIS_TYPE":0,"CLASSIFICATION_TYPE":"U","NORAD_CAT_ID":44537,"ELEMENT_SET_NO":999,"REV_AT_EPOCH":36913,"BSTAR":0.0010532478,"MEAN_MOTION_DOT":0.00262553,"MEAN_MOTION_DDOT":0},{"OBJECT_NAME":"ZHUHAI-1 03D","OBJECT_ID":"2019-060E","EPOCH":"2026-04-27T07:04:52.143744","MEAN_MOTION":15.46830068,"ECCENTRICITY":0.0008888,"INCLINATION":97.5324,"RA_OF_ASC_NODE":265.0172,"ARG_OF_PERICENTER":129.5176,"MEAN_ANOMALY":230.686,"EPHEMERIS_TYPE":0,"CLASSIFICATION_TYPE":"U","NORAD_CAT_ID":44538,"ELEMENT_SET_NO":999,"REV_AT_EPOCH":36820,"BSTAR":0.00074684492,"MEAN_MOTION_DOT":0.00037572,"MEAN_MOTION_DDOT":0},{"OBJECT_NAME":"ZHUHAI-1 03E","OBJECT_ID":"2019-060F","EPOCH":"2026-04-27T07:23:48.822144","MEAN_MOTION":15.39361751,"ECCENTRICITY":0.00060812,"INCLINATION":97.5542,"RA_OF_ASC_NODE":265.5796,"ARG_OF_PERICENTER":192.7444,"MEAN_ANOMALY":167.3649,"EPHEMERIS_TYPE":0,"CLASSIFICATION_TYPE":"U","NORAD_CAT_ID":44539,"ELEMENT_SET_NO":999,"REV_AT_EPOCH":36793,"BSTAR":0.0005679476,"MEAN_MOTION_DOT":0.00022155,"MEAN_MOTION_DDOT":0},{"OBJECT_NAME":"ATLAS 5 CENTAUR DEB","OBJECT_ID":"2018-079BG","EPOCH":"2026-04-26T10:04:52.295808","MEAN_MOTION":1.77432399,"ECCENTRICITY":0.4734942,"INCLINATION":13.5699,"RA_OF_ASC_NODE":43.5238,"ARG_OF_PERICENTER":290.9294,"MEAN_ANOMALY":25.7413,"EPHEMERIS_TYPE":0,"CLASSIFICATION_TYPE":"U","NORAD_CAT_ID":44694,"ELEMENT_SET_NO":999,"REV_AT_EPOCH":4564,"BSTAR":0,"MEAN_MOTION_DOT":-9.5e-7,"MEAN_MOTION_DDOT":0},{"OBJECT_NAME":"GAOFEN-7","OBJECT_ID":"2019-072A","EPOCH":"2026-04-27T07:02:34.227744","MEAN_MOTION":15.21453562,"ECCENTRICITY":0.0015569,"INCLINATION":97.2465,"RA_OF_ASC_NODE":180.6631,"ARG_OF_PERICENTER":205.2513,"MEAN_ANOMALY":154.7964,"EPHEMERIS_TYPE":0,"CLASSIFICATION_TYPE":"U","NORAD_CAT_ID":44703,"ELEMENT_SET_NO":999,"REV_AT_EPOCH":35990,"BSTAR":0.00021551012,"MEAN_MOTION_DOT":4.79e-5,"MEAN_MOTION_DDOT":0},{"OBJECT_NAME":"JILIN-1 GAOFEN 2A","OBJECT_ID":"2019-075A","EPOCH":"2026-04-27T06:38:21.634656","MEAN_MOTION":15.37910709,"ECCENTRICITY":0.00050518,"INCLINATION":97.4966,"RA_OF_ASC_NODE":199.9335,"ARG_OF_PERICENTER":259.0435,"MEAN_ANOMALY":101.0242,"EPHEMERIS_TYPE":0,"CLASSIFICATION_TYPE":"U","NORAD_CAT_ID":44777,"ELEMENT_SET_NO":999,"REV_AT_EPOCH":35705,"BSTAR":0.00048284603,"MEAN_MOTION_DOT":0.0001794,"MEAN_MOTION_DDOT":0},{"OBJECT_NAME":"NINGXIA-1 1","OBJECT_ID":"2019-076A","EPOCH":"2026-04-27T07:16:46.685568","MEAN_MOTION":14.02032127,"ECCENTRICITY":0.00120956,"INCLINATION":45.0068,"RA_OF_ASC_NODE":47.2392,"ARG_OF_PERICENTER":277.7631,"MEAN_ANOMALY":82.183,"EPHEMERIS_TYPE":0,"CLASSIFICATION_TYPE":"U","NORAD_CAT_ID":44779,"ELEMENT_SET_NO":999,"REV_AT_EPOCH":33071,"BSTAR":5.6101468e-5,"MEAN_MOTION_DOT":-4.3e-7,"MEAN_MOTION_DDOT":0},{"OBJECT_NAME":"NINGXIA-1 5","OBJECT_ID":"2019-076E","EPOCH":"2026-04-27T07:38:14.391168","MEAN_MOTION":14.02016287,"ECCENTRICITY":0.00118844,"INCLINATION":45.0064,"RA_OF_ASC_NODE":46.5326,"ARG_OF_PERICENTER":267.5684,"MEAN_ANOMALY":92.379,"EPHEMERIS_TYPE":0,"CLASSIFICATION_TYPE":"U","NORAD_CAT_ID":44783,"ELEMENT_SET_NO":999,"REV_AT_EPOCH":33063,"BSTAR":6.8719578e-5,"MEAN_MOTION_DOT":-2.4e-7,"MEAN_MOTION_DDOT":0},{"OBJECT_NAME":"KL-ALPHA A","OBJECT_ID":"2019-077A","EPOCH":"2026-04-27T06:43:22.181376","MEAN_MOTION":13.56037663,"ECCENTRICITY":0.00090931,"INCLINATION":88.9241,"RA_OF_ASC_NODE":228.1276,"ARG_OF_PERICENTER":253.917,"MEAN_ANOMALY":106.0983,"EPHEMERIS_TYPE":0,"CLASSIFICATION_TYPE":"U","NORAD_CAT_ID":44785,"ELEMENT_SET_NO":999,"REV_AT_EPOCH":31883,"BSTAR":0.00022503488,"MEAN_MOTION_DOT":1.7e-6,"MEAN_MOTION_DDOT":0},{"OBJECT_NAME":"CARTOSAT-3","OBJECT_ID":"2019-081A","EPOCH":"2026-04-27T05:52:21.071712","MEAN_MOTION":15.19293876,"ECCENTRICITY":0.00111356,"INCLINATION":97.4343,"RA_OF_ASC_NODE":179.9194,"ARG_OF_PERICENTER":334.9247,"MEAN_ANOMALY":25.1446,"EPHEMERIS_TYPE":0,"CLASSIFICATION_TYPE":"U","NORAD_CAT_ID":44804,"ELEMENT_SET_NO":999,"REV_AT_EPOCH":35573,"BSTAR":0.00019784885,"MEAN_MOTION_DOT":4.113e-5,"MEAN_MOTION_DDOT":0},{"OBJECT_NAME":"JILIN-1 GAOFEN 2B","OBJECT_ID":"2019-086A","EPOCH":"2026-04-27T06:33:22.957632","MEAN_MOTION":15.20110197,"ECCENTRICITY":0.00155982,"INCLINATION":97.4904,"RA_OF_ASC_NODE":189.6019,"ARG_OF_PERICENTER":134.2481,"MEAN_ANOMALY":226.0037,"EPHEMERIS_TYPE":0,"CLASSIFICATION_TYPE":"U","NORAD_CAT_ID":44836,"ELEMENT_SET_NO":999,"REV_AT_EPOCH":35275,"BSTAR":0.00039326203,"MEAN_MOTION_DOT":8.458e-5,"MEAN_MOTION_DDOT":0},{"OBJECT_NAME":"ANGELS","OBJECT_ID":"2019-092D","EPOCH":"2026-04-27T05:43:44.347872","MEAN_MOTION":16.32734884,"ECCENTRICITY":0.00075344,"INCLINATION":97.389,"RA_OF_ASC_NODE":337.0268,"ARG_OF_PERICENTER":255.1244,"MEAN_ANOMALY":104.9217,"EPHEMERIS_TYPE":0,"CLASSIFICATION_TYPE":"U","NORAD_CAT_ID":44876,"ELEMENT_SET_NO":999,"REV_AT_EPOCH":35436,"BSTAR":0.00090665215,"MEAN_MOTION_DOT":0.05143028,"MEAN_MOTION_DDOT":2.508113e-6},{"OBJECT_NAME":"TIANQIN 1 (CAS-6)","OBJECT_ID":"2019-093A","EPOCH":"2026-04-27T07:10:23.704608","MEAN_MOTION":14.95174327,"ECCENTRICITY":0.00105747,"INCLINATION":97.779,"RA_OF_ASC_NODE":201.5181,"ARG_OF_PERICENTER":217.536,"MEAN_ANOMALY":142.5123,"EPHEMERIS_TYPE":0,"CLASSIFICATION_TYPE":"U","NORAD_CAT_ID":44879,"ELEMENT_SET_NO":999,"REV_AT_EPOCH":34444,"BSTAR":0.00014020926,"MEAN_MOTION_DOT":1.483e-5,"MEAN_MOTION_DDOT":0},{"OBJECT_NAME":"ETRSS-1","OBJECT_ID":"2019-093B","EPOCH":"2026-04-27T06:03:59.594976","MEAN_MOTION":14.95572208,"ECCENTRICITY":0.0010438,"INCLINATION":97.7815,"RA_OF_ASC_NODE":201.8884,"ARG_OF_PERICENTER":216.082,"MEAN_ANOMALY":143.9698,"EPHEMERIS_TYPE":0,"CLASSIFICATION_TYPE":"U","NORAD_CAT_ID":44880,"ELEMENT_SET_NO":999,"REV_AT_EPOCH":34444,"BSTAR":0.00038334441,"MEAN_MOTION_DOT":4.199e-5,"MEAN_MOTION_DDOT":0}]
