TAURUS-1 (JINNIUZUO 1)  
1 44530U 19059C   26117.32287064  .00008511  00000+0  13775-2 0  9998
2 44530  98.6373 279.0294 0009906 112.6567 247.5686 14.71522096351160
ZHUHAI-1 03B            
1 44536U 19060C   26117.26868251  .00036713  00000+0  62605-3 0  9994
2 44536  97.5464 272.4205 0010126 141.0516 219.1467 15.51213637368426
ZHUHAI-1 03C            
1 44537U 19060D   26117.23908491  .00262553  00000+0  10532-2 0  9997
2 44537  97.5497 283.9687 0003350  95.3277 264.8375 15.85812314369138
ZHUHAI-1 03D            
1 44538U 19060E   26117.29504796  .00037572  00000+0  74684-3 0  9994
2 44538  97.5324 265.0172 0008888 129.5176 230.6860 15.46830068368207
ZHUHAI-1 03E            
1 44539U 19060F   26117.30820396  .00022155  00000+0  56795-3 0  9998
2 44539  97.5542 265.5796 0006081 192.7444 167.3649 15.39361751367930
ATLAS 5 CENTAUR DEB     
1 44694U 18079BG  26116.42004972 -.00000095  00000+0  00000+0 0  9999
2 44694  13.5699  43.5238 4734942 290.9294  25.7413  1.77432399 45641
GAOFEN-7                
1 44703U 19072A   26117.29345171  .00004790  00000+0  21551-3 0  9992
2 44703  97.2465 180.6631 0015569 205.2513 154.7964 15.21453562359908
JILIN-1 GAOFEN 2A       
1 44777U 19075A   26117.27663929  .00017940  00000+0  48285-3 0  9992
2 44777  97.4966 199.9335 0005051 259.0435 101.0242 15.37910709357052
NINGXIA-1 1             
1 44779U 19076A   26117.30331812 -.00000043  00000+0  56101-4 0  9996
2 44779  45.0068  47.2392 0012095 277.7631  82.1830 14.02032127330711
NINGXIA-1 5             
1 44783U 19076E   26117.31822212 -.00000024  00000+0  68720-4 0  9990
2 44783  45.0064  46.5326 0011884 267.5684  92.3790 14.02016287330639
KL-ALPHA A              
1 44785U 19077A   26117.28011784  .00000170  00000+0  22503-3 0  9992
2 44785  88.9241 228.1276 0009093 253.9170 106.0983 13.56037663318838
CARTOSAT-3              
1 44804U 19081A   26117.24468833  .00004113  00000+0  19785-3 0  9995
2 44804  97.4343 179.9194 0011135 334.9247  25.1446 15.19293876355731
JILIN-1 GAOFEN 2B       
1 44836U 19086A   26117.27318238  .00008458  00000+0  39326-3 0  9990
2 44836  97.4904 189.6019 0015598 134.2481 226.0037 15.20110197352754
ANGELS                  
1 44876U 19092D   26117.23870773  .05143028  25081-5  90665-3 0  9997
2 44876  97.3890 337.0268 0007534 255.1244 104.9217 16.32734884354369
TIANQIN 1 (CAS-6)       
1 44879U 19093A   26117.29888547  .00001483  00000+0  14021-3 0  9998
2 44879  97.7790 201.5181 0010574 217.5360 142.5123 14.95174327344442
ETRSS-1                 
1 44880U 19093B   26117.25277309  .00004199  00000+0  38334-3 0  9994
2 44880  97.7815 201.8884 0010438 216.0820 143.9698 14.95572208344441
